SL-16 R/B               
1 22566U 93016B   26040.93306455 -.00000191  00000+0 -73784-4 0  9992
2 22566  71.0064 273.4820 0010363 351.8264   8.2688 14.15303421698244
COSMOS 2242             
1 22626U 93024A   26041.15452120  .00002115  00000+0  18375-3 0  9994
2 22626  82.5190 293.0532 0017548  41.9301 318.3261 14.96434018776275
SL-16 R/B               
1 22803U 93059B   26041.16193156  .00000047  00000+0  47072-4 0  9990
2 22803  70.9892  69.1791 0019491 254.4066 105.4907 14.17228044675632
ARIANE 40 R/B           
1 22830U 93061H   26041.18522799  .00000206  00000+0  91471-4 0  9993
2 22830  98.4976 110.6075 0010727  11.9618 348.1819 14.32846234690166
COSMOS 2278             
1 23087U 94023A   26040.94460419 -.00000104  00000+0 -29918-4 0  9996
2 23087  71.0500 233.1445 0006682  66.1712 294.0110 14.14363441640886
SL-16 R/B               
1 23088U 94023B   26040.65020806  .00000086  00000+0  69092-4 0  9991
2 23088  70.9997 129.7753 0004477 311.7693  48.3046 14.15003743642128
SL-16 R/B               
1 23343U 94074B   26041.12763531  .00000534  00000+0  78242-4 0  9998
2 23343  97.7146  73.0571 0005565 321.5614  87.1148 14.79374639683174
SL-16 R/B               
1 23405U 94077B   26041.06675572  .00000195  00000+0  12420-3 0  9998
2 23405  70.9816  50.6020 0004233 234.6189 125.4539 14.15557803612327
ARIANE 40+ R/B          
1 23561U 95021B   26041.15561971  .00000320  00000+0  11598-3 0  9993
2 23561  98.4555 113.0034 0006158 216.4098 195.7077 14.39751923615289
SL-16 R/B               
1 23705U 95058B   26040.93104861  .00000277  00000+0  16583-3 0  9999
2 23705  71.0190 238.5331 0012156 171.8216 188.3108 14.15493360563923
SL-16 R/B               
1 24298U 96051B   26040.97906923  .00000089  00000+0  74807-4 0  9999
2 24298  70.7565 233.8922 0017441 186.9813 173.1067 14.12407631517736
ORBVIEW 2 (SEASTAR)     
1 24883U 97037A   26041.02476117  .00000376  00000+0  14693-3 0  9993
2 24883  98.8518 204.6112 0002977 128.1845 231.9608 14.35473305504504
